start=new Date('2021-10-08T00:00:00.000Z').valueOf();
sats=[{"CENTER_NAME":"EARTH","TLE_LINE2":"2 47138  53.0550 342.2118 0001194  81.3762 278.7362 15.06398029 48646","MEAN_MOTION":"15.06398029","SEMIMAJOR_AXIS":"6925.355","INCLINATION":"53.0550","ELEMENT_SET_NO":"999","PERIOD":"95.592","PERIAPSIS":"546.393","RCS_SIZE":"LARGE","RA_OF_ASC_NODE":"342.2118","OBJECT_TYPE":"PAYLOAD","NORAD_CAT_ID":"47138","SITE":"AFETR","COUNTRY_CODE":"US","GP_ID":"186512027","EPHEMERIS_TYPE":"0","BSTAR":"0.00014959000000","OBJECT_NAME":"STARLINK-1850","ECCENTRICITY":"0.00011940","MEAN_ANOMALY":"278.7362","APOAPSIS":"548.046","OBJECT_ID":"2020-088S","FILE":"3150302","REF_FRAME":"TEME","DECAY_DATE":null,"MEAN_MOTION_DOT":"0.00001947","ARG_OF_PERICENTER":"81.3762","TLE_LINE1":"1 47138U 20088S   21280.67264910  .00001947  00000-0  14959-3 0  9991","MEAN_MOTION_DDOT":"0.0000000000000","EPOCH":"2021-10-07T16:08:36.882240","REV_AT_EPOCH":"4864","TIME_SYSTEM":"UTC","MEAN_ELEMENT_THEORY":"SGP4","CLASSIFICATION_TYPE":"U","LAUNCH_DATE":"2020-11-25"},{"MEAN_MOTION_DOT":"0.00000253","DECAY_DATE":null,"FILE":"3150302","REF_FRAME":"TEME","TLE_LINE1":"1 47139U 20088T   21280.60169711  .00000253  00000-0  35835-4 0  9994","ARG_OF_PERICENTER":"108.9955","REV_AT_EPOCH":"4848","TIME_SYSTEM":"UTC","MEAN_MOTION_DDOT":"0.0000000000000","EPOCH":"2021-10-07T14:26:26.630304","CLASSIFICATION_TYPE":"U","LAUNCH_DATE":"2020-11-25","MEAN_ELEMENT_THEORY":"SGP4","OBJECT_NAME":"STARLINK-1852","MEAN_ANOMALY":"251.1133","ECCENTRICITY":"0.00009100","APOAPSIS":"547.845","OBJECT_ID":"2020-088T","NORAD_CAT_ID":"47139","OBJECT_TYPE":"PAYLOAD","RA_OF_ASC_NODE":"352.5401","RCS_SIZE":"LARGE","SITE":"AFETR","EPHEMERIS_TYPE":"0","GP_ID":"186510800","COUNTRY_CODE":"US","BSTAR":"0.00003583500000","TLE_LINE2":"2 47139  53.0565 352.5401 0000910 108.9955 251.1133 15.06399754 48486","CENTER_NAME":"EARTH","MEAN_MOTION":"15.06399754","INCLINATION":"53.0565","SEMIMAJOR_AXIS":"6925.349","PERIAPSIS":"546.584","PERIOD":"95.592","ELEMENT_SET_NO":"999"},{"TIME_SYSTEM":"UTC","REV_AT_EPOCH":"4896","MEAN_MOTION_DDOT":"0.0000000000000","EPOCH":"2021-10-07T14:00:32.281344","CLASSIFICATION_TYPE":"U","LAUNCH_DATE":"2020-11-25","MEAN_ELEMENT_THEORY":"SGP4","MEAN_MOTION_DOT":"0.00010680","DECAY_DATE":null,"REF_FRAME":"TEME","FILE":"3150302","ARG_OF_PERICENTER":"16.3618","TLE_LINE1":"1 47140U 20088U   21280.58370696  .00010680  00000-0  86338-4 0  9998","APOAPSIS":"357.303","OBJECT_ID":"2020-088U","OBJECT_NAME":"STARLINK-1853","MEAN_ANOMALY":"343.7526","ECCENTRICITY":"0.00039650","EPHEMERIS_TYPE":"0","GP_ID":"186511544","COUNTRY_CODE":"US","BSTAR":"0.00008633800000","OBJECT_TYPE":"PAYLOAD","NORAD_CAT_ID":"47140","RCS_SIZE":"LARGE","RA_OF_ASC_NODE":"318.6762","SITE":"AFETR","INCLINATION":"53.0518","SEMIMAJOR_AXIS":"6732.768","PERIOD":"91.633","PERIAPSIS":"351.964","ELEMENT_SET_NO":"999","TLE_LINE2":"2 47140  53.0518 318.6762 0003965  16.3618 343.7526 15.71492242 48965","CENTER_NAME":"EARTH","MEAN_MOTION":"15.71492242"},{"ECCENTRICITY":"0.00009270","MEAN_ANOMALY":"256.7385","OBJECT_NAME":"STARLINK-1854","OBJECT_ID":"2020-088V","APOAPSIS":"547.876","ARG_OF_PERICENTER":"103.3707","TLE_LINE1":"1 47141U 20088V   21280.67959580  .00000116  00000-0  26665-4 0  9994","FILE":"3150302","REF_FRAME":"TEME","DECAY_DATE":null,"MEAN_MOTION_DOT":"0.00000116","MEAN_ELEMENT_THEORY":"SGP4","CLASSIFICATION_TYPE":"U","LAUNCH_DATE":"2020-11-25","MEAN_MOTION_DDOT":"0.0000000000000","EPOCH":"2021-10-07T16:18:37.077120","TIME_SYSTEM":"UTC","REV_AT_EPOCH":"4871","MEAN_MOTION":"15.06393435","CENTER_NAME":"EARTH","TLE_LINE2":"2 47141  53.0556 337.1270 0000927 103.3707 256.7385 15.06393435 48710","ELEMENT_SET_NO":"999","PERIOD":"95.593","PERIAPSIS":"546.592","SEMIMAJOR_AXIS":"6925.369","INCLINATION":"53.0556","SITE":"AFETR","RCS_SIZE":"LARGE","RA_OF_ASC_NODE":"337.1270","NORAD_CAT_ID":"47141","OBJECT_TYPE":"PAYLOAD","BSTAR":"0.00002666500000","COUNTRY_CODE":"US","GP_ID":"186511801","EPHEMERIS_TYPE":"0"},{"DECAY_DATE":null,"MEAN_MOTION_DOT":"0.00002128","FILE":"3150302","REF_FRAME":"TEME","ARG_OF_PERICENTER":"86.5916","TLE_LINE1":"1 47143U 20088X   21280.59480869  .00002128  00000-0  16171-3 0  9991","TIME_SYSTEM":"UTC","REV_AT_EPOCH":"4869","EPOCH":"2021-10-07T14:16:31.470816","MEAN_MOTION_DDOT":"0.0000000000000","CLASSIFICATION_TYPE":"U","LAUNCH_DATE":"2020-11-25","MEAN_ELEMENT_THEORY":"SGP4","OBJECT_NAME":"STARLINK-1856","MEAN_ANOMALY":"273.5233","ECCENTRICITY":"0.00014010","APOAPSIS":"548.174","OBJECT_ID":"2020-088X","NORAD_CAT_ID":"47143","OBJECT_TYPE":"PAYLOAD","RCS_SIZE":"LARGE","RA_OF_ASC_NODE":"337.5618","SITE":"AFETR","GP_ID":"186512528","EPHEMERIS_TYPE":"0","COUNTRY_CODE":"US","BSTAR":"0.00016171000000","TLE_LINE2":"2 47143  53.0558 337.5618 0001401  86.5916 273.5233 15.06403320 48697","CENTER_NAME":"EARTH","MEAN_MOTION":"15.06403320","INCLINATION":"53.0558","SEMIMAJOR_AXIS":"6925.338","PERIOD":"95.592","PERIAPSIS":"546.233","ELEMENT_SET_NO":"999"},{"TIME_SYSTEM":"UTC","REV_AT_EPOCH":"4907","MEAN_MOTION_DDOT":"0.0000000000000","EPOCH":"2021-10-07T12:21:05.308128","LAUNCH_DATE":"2020-11-25","CLASSIFICATION_TYPE":"U","MEAN_ELEMENT_THEORY":"SGP4","DECAY_DATE":null,"MEAN_MOTION_DOT":"0.00000551","FILE":"3149609","REF_FRAME":"TEME","TLE_LINE1":"1 47144U 20088Y   21280.51464477  .00000551  00000-0  55883-4 0  9993","ARG_OF_PERICENTER":"84.0849","APOAPSIS":"547.997","OBJECT_ID":"2020-088Y","OBJECT_NAME":"STARLINK-1857","MEAN_ANOMALY":"276.0268","ECCENTRICITY":"0.00011240","EPHEMERIS_TYPE":"0","GP_ID":"186473699","COUNTRY_CODE":"US","BSTAR":"0.00005588300000","NORAD_CAT_ID":"47144","OBJECT_TYPE":"PAYLOAD","RA_OF_ASC_NODE":"327.9286","RCS_SIZE":"LARGE","SITE":"AFETR","INCLINATION":"53.0564","SEMIMAJOR_AXIS":"6925.354","PERIAPSIS":"546.440","PERIOD":"95.592","ELEMENT_SET_NO":"999","TLE_LINE2":"2 47144  53.0564 327.9286 0001124  84.0849 276.0268 15.06398354 49078","CENTER_NAME":"EARTH","MEAN_MOTION":"15.06398354"},{"SITE":"AFETR","OBJECT_TYPE":"PAYLOAD","NORAD_CAT_ID":"47145","RA_OF_ASC_NODE":"327.9542","RCS_SIZE":"LARGE","BSTAR":"0.00009231000000","EPHEMERIS_TYPE":"0","GP_ID":"186476218","COUNTRY_CODE":"US","MEAN_MOTION":"15.06399774","TLE_LINE2":"2 47145  53.0545 327.9542 0006334  79.4647 280.7055 15.06399774 49078","CENTER_NAME":"EARTH","PERIAPSIS":"542.828","PERIOD":"95.592","ELEMENT_SET_NO":"999","INCLINATION":"53.0545","SEMIMAJOR_AXIS":"6925.349","TLE_LINE1":"1 47145U 20088Z   21280.50728222  .00001092  00000-0  92310-4 0  9991","ARG_OF_PERICENTER":"79.4647","MEAN_MOTION_DOT":"0.00001092","DECAY_DATE":null,"REF_FRAME":"TEME","FILE":"3149723","CLASSIFICATION_TYPE":"U","LAUNCH_DATE":"2020-11-25","MEAN_ELEMENT_THEORY":"SGP4","TIME_SYSTEM":"UTC","REV_AT_EPOCH":"4907","MEAN_MOTION_DDOT":"0.0000000000000","EPOCH":"2021-10-07T12:10:29.183808","MEAN_ANOMALY":"280.7055","ECCENTRICITY":"0.00063340","OBJECT_NAME":"STARLINK-1858","OBJECT_ID":"2020-088Z","APOAPSIS":"551.601"},{"MEAN_ELEMENT_THEORY":"SGP4","CLASSIFICATION_TYPE":"U","LAUNCH_DATE":"2020-11-25","MEAN_MOTION_DDOT":"0.0000000000000","EPOCH":"2021-10-07T11:17:22.080480","TIME_SYSTEM":"UTC","REV_AT_EPOCH":"4864","TLE_LINE1":"1 47146U 20088AA  21280.47039445  .00001952  00000-0  14988-3 0  9999","ARG_OF_PERICENTER":"109.3256","REF_FRAME":"TEME","FILE":"3149625","DECAY_DATE":null,"MEAN_MOTION_DOT":"0.00001952","OBJECT_ID":"2020-088AA","APOAPSIS":"548.056","ECCENTRICITY":"0.00012020","MEAN_ANOMALY":"250.7863","OBJECT_NAME":"STARLINK-1859","BSTAR":"0.00014988000000","COUNTRY_CODE":"US","GP_ID":"186470944","EPHEMERIS_TYPE":"0","SITE":"AFETR","RA_OF_ASC_NODE":"358.1299","RCS_SIZE":"LARGE","NORAD_CAT_ID":"47146","OBJECT_TYPE":"PAYLOAD","ELEMENT_SET_NO":"999","PERIAPSIS":"546.391","PERIOD":"95.592","SEMIMAJOR_AXIS":"6925.358","INCLINATION":"53.0575","MEAN_MOTION":"15.06396865","CENTER_NAME":"EARTH","TLE_LINE2":"2 47146  53.0575 358.1299 0001202 109.3256 250.7863 15.06396865 48649"},{"OBJECT_NAME":"STARLINK-1860","ECCENTRICITY":"0.00012180","MEAN_ANOMALY":"271.3191","APOAPSIS":"548.070","OBJECT_ID":"2020-088AB","FILE":"3149232","REF_FRAME":"TEME","MEAN_MOTION_DOT":"0.00001922","DECAY_DATE":null,"TLE_LINE1":"1 47147U 20088AB  21280.47224571  .00001922  00000-0  14789-3 0  9992","ARG_OF_PERICENTER":"88.7937","EPOCH":"2021-10-07T11:20:02.029344","MEAN_MOTION_DDOT":"0.0000000000000","TIME_SYSTEM":"UTC","REV_AT_EPOCH":"4854","MEAN_ELEMENT_THEORY":"SGP4","CLASSIFICATION_TYPE":"U","LAUNCH_DATE":"2020-11-25","CENTER_NAME":"EARTH","TLE_LINE2":"2 47147  53.0561 348.1344 0001218  88.7937 271.3191 15.06395708 48545","MEAN_MOTION":"15.06395708","SEMIMAJOR_AXIS":"6925.362","INCLINATION":"53.0561","ELEMENT_SET_NO":"999","PERIAPSIS":"546.383","PERIOD":"95.592","RA_OF_ASC_NODE":"348.1344","RCS_SIZE":"LARGE","OBJECT_TYPE":"PAYLOAD","NORAD_CAT_ID":"47147","SITE":"AFETR","COUNTRY_CODE":"US","GP_ID":"186463102","EPHEMERIS_TYPE":"0","BSTAR":"0.00014789000000"},{"MEAN_MOTION_DDOT":"0.0000000000000","EPOCH":"2021-10-07T15:30:50.122080","TIME_SYSTEM":"UTC","REV_AT_EPOCH":"4870","MEAN_ELEMENT_THEORY":"SGP4","CLASSIFICATION_TYPE":"U","LAUNCH_DATE":"2020-11-25","REF_FRAME":"TEME","FILE":"3150302","MEAN_MOTION_DOT":"0.00004754","DECAY_DATE":null,"ARG_OF_PERICENTER":"88.9005","TLE_LINE1":"1 47148U 20088AC  21280.64641345  .00004754  00000-0  33772-3 0  9993","APOAPSIS":"548.079","OBJECT_ID":"2020-088AC","OBJECT_NAME":"STARLINK-1861","ECCENTRICITY":"0.00012960","MEAN_ANOMALY":"271.2133","COUNTRY_CODE":"US","EPHEMERIS_TYPE":"0","GP_ID":"186510801","BSTAR":"0.00033772000000","RCS_SIZE":"LARGE","RA_OF_ASC_NODE":"337.3353","OBJECT_TYPE":"PAYLOAD","NORAD_CAT_ID":"47148","SITE":"AFETR","SEMIMAJOR_AXIS":"6925.317","INCLINATION":"53.0561","ELEMENT_SET_NO":"999","PERIOD":"95.591","PERIAPSIS":"546.284","CENTER_NAME":"EARTH","TLE_LINE2":"2 47148  53.0561 337.3353 0001296  88.9005 271.2133 15.06410425 48707","MEAN_MOTION":"15.06410425"}];
